start=new Date('2022-04-30T00:00:00.000Z').valueOf();
sats=[{"INCLINATION":"53.0551","MEAN_MOTION":"15.06399353","NORAD_CAT_ID":"48454","DECAY_DATE":null,"RCS_SIZE":"LARGE","CENTER_NAME":"EARTH","APOAPSIS":"548.240","MEAN_MOTION_DOT":"-0.00002667","TLE_LINE1":"1 48454U 21040AC  22119.89811571 -.00002667  00000-0 -16020-3 0  9992","COUNTRY_CODE":"US","OBJECT_ID":"2021-040AC","REF_FRAME":"TEME","ECCENTRICITY":"0.00014800","BSTAR":"-0.00016020000000","EPOCH":"2022-04-29T21:33:17.197344","FILE":"3421985","SITE":"AFETR","TLE_LINE2":"2 48454  53.0551  30.4295 0001480  82.6733 277.4424 15.06399353 54149","PERIOD":"95.592","MEAN_MOTION_DDOT":"0.0000000000000","MEAN_ELEMENT_THEORY":"SGP4","LAUNCH_DATE":"2021-05-09","OBJECT_NAME":"STARLINK-2654","CLASSIFICATION_TYPE":"U","ARG_OF_PERICENTER":"82.6733","PERIAPSIS":"546.191","GP_ID":"202310283","SEMIMAJOR_AXIS":"6925.351","MEAN_ANOMALY":"277.4424","ELEMENT_SET_NO":"999","REV_AT_EPOCH":"5414","TIME_SYSTEM":"UTC","EPHEMERIS_TYPE":"0","RA_OF_ASC_NODE":"30.4295","OBJECT_TYPE":"PAYLOAD"},{"OBJECT_ID":"2021-040AD","COUNTRY_CODE":"US","ECCENTRICITY":"0.00015780","REF_FRAME":"TEME","EPOCH":"2022-04-29T21:28:00.232896","BSTAR":"-0.00004607300000","FILE":"3421985","PERIOD":"95.593","SITE":"AFETR","TLE_LINE2":"2 48455  53.0560  30.4267 0001578  60.5067 299.6080 15.06390107 54133","MEAN_MOTION_DDOT":"0.0000000000000","INCLINATION":"53.0560","MEAN_MOTION":"15.06390107","DECAY_DATE":null,"NORAD_CAT_ID":"48455","CENTER_NAME":"EARTH","RCS_SIZE":"LARGE","APOAPSIS":"548.337","TLE_LINE1":"1 48455U 21040AD  22119.89444714 -.00000968  00000-0 -46073-4 0  9998","MEAN_MOTION_DOT":"-0.00000968","MEAN_ANOMALY":"299.6080","ELEMENT_SET_NO":"999","REV_AT_EPOCH":"5413","EPHEMERIS_TYPE":"0","TIME_SYSTEM":"UTC","OBJECT_TYPE":"PAYLOAD","RA_OF_ASC_NODE":"30.4267","LAUNCH_DATE":"2021-05-09","OBJECT_NAME":"STARLINK-2497","MEAN_ELEMENT_THEORY":"SGP4","CLASSIFICATION_TYPE":"U","ARG_OF_PERICENTER":"60.5067","PERIAPSIS":"546.151","SEMIMAJOR_AXIS":"6925.379","GP_ID":"202311027"},{"APOAPSIS":"548.398","CENTER_NAME":"EARTH","RCS_SIZE":"LARGE","TLE_LINE1":"1 48456U 21040AE  22119.89074406  .00000008  00000-0  19450-4 0  9998","MEAN_MOTION_DOT":"0.00000008","MEAN_MOTION":"15.06402810","INCLINATION":"53.0562","NORAD_CAT_ID":"48456","DECAY_DATE":null,"FILE":"3421985","MEAN_MOTION_DDOT":"0.0000000000000","PERIOD":"95.592","SITE":"AFETR","TLE_LINE2":"2 48456  53.0562  30.4526 0001723  60.3554 299.7606 15.06402810 54135","OBJECT_ID":"2021-040AE","COUNTRY_CODE":"US","BSTAR":"0.00001945000000","EPOCH":"2022-04-29T21:22:40.286784","ECCENTRICITY":"0.00017230","REF_FRAME":"TEME","PERIAPSIS":"546.012","ARG_OF_PERICENTER":"60.3554","GP_ID":"202309776","SEMIMAJOR_AXIS":"6925.340","CLASSIFICATION_TYPE":"U","LAUNCH_DATE":"2021-05-09","OBJECT_NAME":"STARLINK-2508","MEAN_ELEMENT_THEORY":"SGP4","RA_OF_ASC_NODE":"30.4526","OBJECT_TYPE":"PAYLOAD","ELEMENT_SET_NO":"999","MEAN_ANOMALY":"299.7606","EPHEMERIS_TYPE":"0","TIME_SYSTEM":"UTC","REV_AT_EPOCH":"5413"},{"FILE":"3421985","MEAN_MOTION_DDOT":"0.0000000000000","TLE_LINE2":"2 48458  53.0559  36.0348 0001843  68.6348 291.4838 15.06401558 54765","SITE":"AFETR","PERIOD":"95.592","COUNTRY_CODE":"US","OBJECT_ID":"2021-040AG","EPOCH":"2022-04-29T18:17:31.928640","BSTAR":"-0.00010125000000","REF_FRAME":"TEME","ECCENTRICITY":"0.00018430","APOAPSIS":"548.485","CENTER_NAME":"EARTH","RCS_SIZE":"LARGE","MEAN_MOTION_DOT":"-0.00001790","TLE_LINE1":"1 48458U 21040AG  22119.76217510 -.00001790  00000-0 -10125-3 0  9991","MEAN_MOTION":"15.06401558","INCLINATION":"53.0559","DECAY_DATE":null,"NORAD_CAT_ID":"48458","OBJECT_TYPE":"PAYLOAD","RA_OF_ASC_NODE":"36.0348","ELEMENT_SET_NO":"999","MEAN_ANOMALY":"291.4838","EPHEMERIS_TYPE":"0","TIME_SYSTEM":"UTC","REV_AT_EPOCH":"5476","PERIAPSIS":"545.932","ARG_OF_PERICENTER":"68.6348","GP_ID":"202310026","SEMIMAJOR_AXIS":"6925.344","CLASSIFICATION_TYPE":"U","MEAN_ELEMENT_THEORY":"SGP4","LAUNCH_DATE":"2021-05-09","OBJECT_NAME":"STARLINK-2698"},{"OBJECT_TYPE":"PAYLOAD","RA_OF_ASC_NODE":"35.5960","EPHEMERIS_TYPE":"0","TIME_SYSTEM":"UTC","REV_AT_EPOCH":"5407","ELEMENT_SET_NO":"999","MEAN_ANOMALY":"293.0517","GP_ID":"202310777","SEMIMAJOR_AXIS":"6925.363","PERIAPSIS":"545.991","ARG_OF_PERICENTER":"67.0661","CLASSIFICATION_TYPE":"U","MEAN_ELEMENT_THEORY":"SGP4","LAUNCH_DATE":"2021-05-09","OBJECT_NAME":"STARLINK-2579","MEAN_MOTION_DDOT":"0.0000000000000","TLE_LINE2":"2 48459  53.0557  35.5960 0001787  67.0661 293.0517 15.06395215 54074","SITE":"AFETR","PERIOD":"95.592","FILE":"3421985","EPOCH":"2022-04-29T20:40:50.715840","BSTAR":"-0.00022294000000","REF_FRAME":"TEME","ECCENTRICITY":"0.00017870","COUNTRY_CODE":"US","OBJECT_ID":"2021-040AH","MEAN_MOTION_DOT":"-0.00003600","TLE_LINE1":"1 48459U 21040AH  22119.86169810 -.00003600  00000-0 -22294-3 0  9994","APOAPSIS":"548.466","CENTER_NAME":"EARTH","RCS_SIZE":"LARGE","DECAY_DATE":null,"NORAD_CAT_ID":"48459","MEAN_MOTION":"15.06395215","INCLINATION":"53.0557"},{"MEAN_ELEMENT_THEORY":"SGP4","OBJECT_NAME":"STARLINK-2582","LAUNCH_DATE":"2021-05-09","CLASSIFICATION_TYPE":"U","GP_ID":"202310534","SEMIMAJOR_AXIS":"6925.339","ARG_OF_PERICENTER":"68.9747","PERIAPSIS":"546.271","REV_AT_EPOCH":"5458","TIME_SYSTEM":"UTC","EPHEMERIS_TYPE":"0","MEAN_ANOMALY":"291.1386","ELEMENT_SET_NO":"999","OBJECT_TYPE":"PAYLOAD","RA_OF_ASC_NODE":"35.3561","DECAY_DATE":null,"NORAD_CAT_ID":"48460","INCLINATION":"53.0572","MEAN_MOTION":"15.06403041","MEAN_MOTION_DOT":"0.00005040","TLE_LINE1":"1 48460U 21040AJ  22119.91424396  .00005040  00000-0  35700-3 0  9999","CENTER_NAME":"EARTH","RCS_SIZE":"LARGE","APOAPSIS":"548.138","REF_FRAME":"TEME","ECCENTRICITY":"0.00013480","BSTAR":"0.00035700000000","EPOCH":"2022-04-29T21:56:30.678144","COUNTRY_CODE":"US","OBJECT_ID":"2021-040AJ","TLE_LINE2":"2 48460  53.0572  35.3561 0001348  68.9747 291.1386 15.06403041 54582","SITE":"AFETR","PERIOD":"95.592","MEAN_MOTION_DDOT":"0.0000000000000","FILE":"3421985"},{"SEMIMAJOR_AXIS":"6925.375","GP_ID":"202309283","ARG_OF_PERICENTER":"56.0110","PERIAPSIS":"545.970","MEAN_ELEMENT_THEORY":"SGP4","OBJECT_NAME":"STARLINK-2693","LAUNCH_DATE":"2021-05-09","CLASSIFICATION_TYPE":"U","OBJECT_TYPE":"PAYLOAD","RA_OF_ASC_NODE":"35.8771","REV_AT_EPOCH":"5406","EPHEMERIS_TYPE":"0","TIME_SYSTEM":"UTC","MEAN_ANOMALY":"304.1053","ELEMENT_SET_NO":"999","MEAN_MOTION_DOT":"-0.00002222","TLE_LINE1":"1 48461U 21040AK  22119.79629887 -.00002222  00000-0 -13035-3 0  9996","CENTER_NAME":"EARTH","RCS_SIZE":"LARGE","APOAPSIS":"548.510","DECAY_DATE":null,"NORAD_CAT_ID":"48461","INCLINATION":"53.0571","MEAN_MOTION":"15.06391432","TLE_LINE2":"2 48461  53.0571  35.8771 0001834  56.0110 304.1053 15.06391432 54061","SITE":"AFETR","PERIOD":"95.593","MEAN_MOTION_DDOT":"0.0000000000000","FILE":"3421985","REF_FRAME":"TEME","ECCENTRICITY":"0.00018340","BSTAR":"-0.00013035000000","EPOCH":"2022-04-29T19:06:40.222368","COUNTRY_CODE":"US","OBJECT_ID":"2021-040AK"},{"RCS_SIZE":"LARGE","CENTER_NAME":"EARTH","APOAPSIS":"548.327","TLE_LINE1":"1 48462U 21040AL  22119.81884550 -.00004041  00000-0 -25257-3 0  9990","MEAN_MOTION_DOT":"-0.00004041","INCLINATION":"53.0557","MEAN_MOTION":"15.06395497","NORAD_CAT_ID":"48462","DECAY_DATE":null,"FILE":"3421985","PERIOD":"95.592","TLE_LINE2":"2 48462  53.0557  40.7600 0001588  63.5583 296.5569 15.06395497 53997","SITE":"AFETR","MEAN_MOTION_DDOT":"0.0000000000000","OBJECT_ID":"2021-040AL","COUNTRY_CODE":"US","ECCENTRICITY":"0.00015880","REF_FRAME":"TEME","EPOCH":"2022-04-29T19:39:08.251200","BSTAR":"-0.00025257000000","ARG_OF_PERICENTER":"63.5583","PERIAPSIS":"546.128","SEMIMAJOR_AXIS":"6925.362","GP_ID":"202309533","OBJECT_NAME":"STARLINK-2683","LAUNCH_DATE":"2021-05-09","MEAN_ELEMENT_THEORY":"SGP4","CLASSIFICATION_TYPE":"U","RA_OF_ASC_NODE":"40.7600","OBJECT_TYPE":"PAYLOAD","MEAN_ANOMALY":"296.5569","ELEMENT_SET_NO":"999","REV_AT_EPOCH":"5399","EPHEMERIS_TYPE":"0","TIME_SYSTEM":"UTC"},{"FILE":"3421985","MEAN_MOTION_DDOT":"0.0000000000000","PERIOD":"95.592","TLE_LINE2":"2 48463  53.0558  41.2306 0001862  68.0807 292.0380 15.06404810 53983","SITE":"AFETR","OBJECT_ID":"2021-040AM","COUNTRY_CODE":"US","EPOCH":"2022-04-29T17:15:49.815648","BSTAR":"-0.00001766200000","ECCENTRICITY":"0.00018620","REF_FRAME":"TEME","APOAPSIS":"548.488","CENTER_NAME":"EARTH","RCS_SIZE":"LARGE","TLE_LINE1":"1 48463U 21040AM  22119.71932657 -.00000545  00000-0 -17662-4 0  9999","MEAN_MOTION_DOT":"-0.00000545","MEAN_MOTION":"15.06404810","INCLINATION":"53.0558","NORAD_CAT_ID":"48463","DECAY_DATE":null,"RA_OF_ASC_NODE":"41.2306","OBJECT_TYPE":"PAYLOAD","ELEMENT_SET_NO":"999","MEAN_ANOMALY":"292.0380","EPHEMERIS_TYPE":"0","TIME_SYSTEM":"UTC","REV_AT_EPOCH":"5398","PERIAPSIS":"545.909","ARG_OF_PERICENTER":"68.0807","GP_ID":"202310284","SEMIMAJOR_AXIS":"6925.334","CLASSIFICATION_TYPE":"U","OBJECT_NAME":"STARLINK-2689","LAUNCH_DATE":"2021-05-09","MEAN_ELEMENT_THEORY":"SGP4"},{"FILE":"3421985","MEAN_MOTION_DDOT":"0.0000000000000","TLE_LINE2":"2 48464  53.0564  41.0264 0001701  61.3530 298.7630 15.06394463 53986","SITE":"AFETR","PERIOD":"95.592","COUNTRY_CODE":"US","OBJECT_ID":"2021-040AN","BSTAR":"0.00002940800000","EPOCH":"2022-04-29T18:20:53.767680","REF_FRAME":"TEME","ECCENTRICITY":"0.00017010","APOAPSIS":"548.409","CENTER_NAME":"EARTH","RCS_SIZE":"MEDIUM","MEAN_MOTION_DOT":"0.00000156","TLE_LINE1":"1 48464U 21040AN  22119.76451120  .00000156  00000-0  29408-4 0  9993","MEAN_MOTION":"15.06394463","INCLINATION":"53.0564","NORAD_CAT_ID":"48464","DECAY_DATE":null,"RA_OF_ASC_NODE":"41.0264","OBJECT_TYPE":"PAYLOAD","ELEMENT_SET_NO":"999","MEAN_ANOMALY":"298.7630","EPHEMERIS_TYPE":"0","TIME_SYSTEM":"UTC","REV_AT_EPOCH":"5398","PERIAPSIS":"546.053","ARG_OF_PERICENTER":"61.3530","GP_ID":"202311028","SEMIMAJOR_AXIS":"6925.366","CLASSIFICATION_TYPE":"U","MEAN_ELEMENT_THEORY":"SGP4","LAUNCH_DATE":"2021-05-09","OBJECT_NAME":"STARLINK-2686"}];
